KUIPER-00165            
1 65778U 25217S   25299.21066490  .00033276  00000+0  91859-3 0  9990
2 65778  51.8702 294.1985 0003602 169.3150 190.7913 15.36765929  4739
KUIPER-00166            
1 65779U 25217T   25299.59462411  .00039933  00000+0  10873-2 0  9997
2 65779  51.8723 292.2753 0003801 148.8037 211.3175 15.37106095  4792
KUIPER-00167            
1 65780U 25217U   25299.68166361  .00034033  00000+0  96228-3 0  9999
2 65780  51.8690 292.0989 0005308 205.5192 154.5532 15.36001331  4806
KUIPER-00168            
1 65781U 25217V   25299.71106685  .00070155  00000+0  18578-2 0  9993
2 65781  51.8748 291.5597 0002599  72.8373 287.2898 15.37716808  4818
KUIPER-00169            
1 65782U 25217W   25299.27148045  .00027983  00000+0  76933-3 0  9992
2 65782  51.8723 293.8587 0003107 152.1027 208.0127 15.36983676  4746
KUIPER-00170            
1 65783U 25217X   25299.54964285  .00043742  00000+0  12310-2 0  9994
2 65783  51.8671 292.7141 0005637 196.0891 163.9916 15.36028576  4787
KUIPER-00171            
1 65784U 25217Y   25299.83334491  .00205648  00000+0  45744-2 0  9999
2 65784  51.8690 291.0857 0007134 186.0698  71.6389 15.42341848  4958
KUIPER-00172            
1 65785U 25217Z   25299.71816161  .00041185  00000+0  11092-2 0  9999
2 65785  51.8724 291.6047 0002567 124.6998 235.4231 15.37433745  4813
KUIPER-00173            
1 65786U 25217AA  25299.26758772  .00037309  00000+0  10142-2 0  9991
2 65786  51.8715 293.8341 0002787 149.0574 211.0577 15.37189877  4749
KUIPER-00174            
1 65787U 25217AB  25299.71324338  .00067961  00000+0  18056-2 0  9998
2 65787  51.8724 291.5698 0003105  94.9157 265.2184 15.37629108  4819
KUIPER-00176            
1 65788U 25217AC  25299.71797492  .00045972  00000+0  12370-2 0  9995
2 65788  51.8719 291.6037 0001941 102.0067 258.1138 15.37412863  4817
KUIPER-00101            
1 65947U 25228A   25299.71307620  .00040975  00000+0  12084-2 0  9994
2 65947  51.8800 247.1086 0006335 179.2406 180.8590 15.34585424  3194
KUIPER-00113            
1 65948U 25228B   25299.71096231  .00044816  00000+0  13095-2 0  9999
2 65948  51.8806 247.0991 0006348 177.1860 182.9163 15.34836727  3194
KUIPER-00117            
1 65949U 25228C   25299.71130147  .00031368  00000+0  92293-3 0  9991
2 65949  51.8807 247.1008 0006044 176.4033 183.6997 15.34789635  3191
KUIPER-00121            
1 65950U 25228D   25299.71634029  .00033721  00000+0  10096-2 0  9996
2 65950  51.8815 247.1370 0005577 196.2013 163.8795 15.34206823  3191
KUIPER-00122            
1 65951U 25228E   25299.71728917  .00040768  00000+0  12222-2 0  9999
2 65951  51.8806 247.1372 0006366 200.5493 159.5237 15.34069576  3197
KUIPER-00123            
1 65952U 25228F   25299.71642410  .00033248  00000+0  99792-3 0  9996
2 65952  51.8800 247.1304 0005420 190.8942 169.1927 15.34134900  3194
KUIPER-00124            
1 65953U 25228G   25299.71769574  .00032535  00000+0  98025-3 0  9994
2 65953  51.8811 247.1434 0005590 205.6256 154.4453 15.34023810  3190
KUIPER-00125            
1 65954U 25228H   25299.71425436  .00031876  00000+0  94830-3 0  9998
2 65954  51.8801 247.1159 0005675 185.4142 174.6783 15.34435093  3197
KUIPER-00126            
1 65955U 25228J   25299.71685714  .00042755  00000+0  12768-2 0  9993
2 65955  51.8808 247.1366 0006114 200.8913 159.1823 15.34172633  3193
KUIPER-00127            
1 65956U 25228K   25299.71157910  .00033647  00000+0  99013-3 0  9995
2 65956  51.8808 247.1029 0006001 178.6578 181.4425 15.34750026  3198
KUIPER-00128            
1 65957U 25228L   25299.71341729  .00032768  00000+0  97122-3 0  9991
2 65957  51.8810 247.1164 0005902 181.2116 178.8856 15.34536806  3195
KUIPER-00129            
1 65958U 25228M   25299.71303772  .00035477  00000+0  10498-2 0  9998
2 65958  51.8807 247.1138 0006151 176.8740 183.2285 15.34548565  3194
KUIPER-00130            
1 65959U 25228N   25299.71514323  .00032482  00000+0  96835-3 0  9998
2 65959  51.8800 247.1225 0005299 192.0495 168.0365 15.34361076  3194
KUIPER-00134            
1 65960U 25228P   25299.71596655  .00029203  00000+0  87512-3 0  9997
2 65960  51.8801 247.1274 0005150 197.8743 162.2062 15.34252217  3192
KUIPER-00135            
1 65961U 25228Q   25299.71555891  .00030579  00000+0  91584-3 0  9997
2 65961  51.8814 247.1314 0005105 184.1675 175.9269 15.34246559  3197
KUIPER-00136            
1 65962U 25228R   25299.71216082  .00026130  00000+0  77420-3 0  9995
2 65962  51.8808 247.1088 0005751 180.0291 180.0695 15.34668700  3191
KUIPER-00137            
1 65963U 25228S   25299.71520922  .00030729  00000+0  91792-3 0  9994
2 65963  51.8813 247.1298 0005269 191.8157 168.2706 15.34326181  3191
KUIPER-00138            
1 65964U 25228T   25299.71659758  .00047521  00000+0  14183-2 0  9991
2 65964  51.8800 247.1327 0006022 203.3977 156.6735 15.34143336  3190
KUIPER-00140            
1 65965U 25228U   25299.71728080  .00044627  00000+0  13350-2 0  9996
2 65965  51.8810 247.1412 0005828 202.9125 157.1601 15.34099108  3195
KUIPER-00141            
1 65966U 25228V   25299.71372190  .00036329  00000+0  10760-2 0  9996
2 65966  51.8801 247.1130 0005782 183.4218 176.6729 15.34510852  3199
KUIPER-00146            
1 65967U 25228W   25299.71400898  .00039202  00000+0  11612-2 0  9994
2 65967  51.8808 247.1211 0006021 183.2719 176.8228 15.34468047  3192
KUIPER-00149            
1 65968U 25228X   25299.71246611  .00032437  00000+0  95845-3 0  9990
2 65968  51.8803 247.1062 0005767 181.0919 179.0055 15.34640433  3190
KUIPER-00154            
1 65969U 25228Y   25299.71189117  .00033503  00000+0  98720-3 0  9998
2 65969  51.8806 247.1032 0005855 179.5444 180.5548 15.34710856  3195
KUIPER-00157            
1 65970U 25228Z   25299.71606046  .00040557  00000+0  12088-2 0  9994
2 65970  51.8814 247.1352 0005731 195.8729 164.2077 15.34258892  3194
